CALSPHERE 1             
1 00900U 64063C   22292.78936522  .00000601  00000+0  62979-3 0  9999
2 00900  90.1831  43.2057 0026325  12.1674  84.1606 13.73932749887739
CALSPHERE 2             
1 00902U 64063E   22292.35222793  .00000048  00000+0  57972-4 0  9995
2 00902  90.1973  46.3599 0019595 143.5721 278.6502 13.52724806675523
LCS 1                   
1 01361U 65034C   22293.43196768  .00000015  00000+0  89777-3 0  9997
2 01361  32.1380 108.5463 0012229 319.8946  40.0648  9.89302246 77945
TEMPSAT 1               
1 01512U 65065E   22292.52355662  .00000057  00000+0  94432-4 0  9999
2 01512  89.9240 217.6578 0071419  43.1981 131.4650 13.33458432781908
CALSPHERE 4A            
1 01520U 65065H   22292.77186869  .00000105  00000+0  18710-3 0  9994
2 01520  89.9811 130.0524 0067549 273.2392 208.9827 13.35910366784259
OPS 5712 (P/L 160)      
1 02826U 67053A   22293.25314647  .00002406  00000+0  62041-3 0  9996
2 02826  69.9301 356.2010 0005843 216.7369 143.3366 14.51200137871331
OPS 5712 (P/L 153)      
1 02874U 67053H   22293.49242873  .00000033  00000+0  62154-4 0  9996
2 02874  69.9719  97.3138 0005413 149.0349 211.1077 13.96422826820763
SURCAL 150B             
1 02909U 67053J   22293.18020419  .00003754  00000+0  71169-3 0  9999
2 02909  69.9484 339.6302 0006014 250.1772 109.8722 14.65035055882374
RIGIDSPHERE 2 (LCS 4)   
1 05398U 71067E   22293.22200315  .00000506  00000+0  17009-3 0  9999
2 05398  87.6261 348.5961 0061911 335.6283  24.1989 14.34357093682379
COSMOS 2493 (SKRL-756 1)
1 39490U 13078A   22293.46295982  .00001703  00000+0  17472-3 0  9991
2 39490  82.4147 114.3667 0018024  45.3154 314.9528 14.89754975478637
COSMOS 2494 (SKRL-756 2)
1 39491U 13078B   22293.44990884  .00001852  00000+0  18304-3 0  9993
2 39491  82.4146 107.8831 0022012  20.6654 339.5450 14.91228852478966
